{
  "norad_id": 55361,
  "name": "STARLINK-5665",
  "history": [
    {
      "epoch": "2026-03-28T22:00:01.999584Z",
      "apogee_km": 484.11120596400724,
      "perigee_km": 481.9204398676502,
      "latitude_deg": 32.2283898839846,
      "longitude_deg": 65.9152859610314,
      "height_km": 484.73466146513783,
      "semi_major_axis_km": 6861.152822915828,
      "eccentricity": 0.00015965,
      "inclination_deg": 43.001,
      "raan_deg": 180.0098,
      "arg_perigee_deg": 276.6154,
      "mean_anomaly_deg": 134.5679,
      "mean_motion_rev_day": 15.27591112
    },
    {
      "epoch": "2026-03-29T04:00:01.999584Z",
      "apogee_km": 484.13890460545645,
      "perigee_km": 482.1354125511525,
      "latitude_deg": -8.49244751288795,
      "longitude_deg": -77.14975621842665,
      "height_km": 484.1301302002217,
      "semi_major_axis_km": 6861.274158578304,
      "eccentricity": 0.000146,
      "inclination_deg": 43.0009,
      "raan_deg": 178.5976,
      "arg_perigee_deg": 273.5122,
      "mean_anomaly_deg": 74.1232,
      "mean_motion_rev_day": 15.27550591
    }
  ]
}